2024-128H               
1 60242U 24128H   24218.53172364  .00009788  00000+0  87747-3 0  9996
2 60242  61.9853  69.4583 0013727 283.8699  76.0862 14.96226601  3995
ROBUSTA-3A (MEDITERRAN*)
1 60243U 24128J   24218.20089713  .00010711  00000+0  96356-3 0  9990
2 60243  61.9919  70.6547 0012843 274.0949  85.8671 14.96022960  3944
CATSAT                  
1 60246U 24125J   24218.56243300  .00012474  00000+0  56759-3 0  9994
2 60246  97.3010  71.7833 0054241 103.2573 257.4720 15.19503553  3036
2024-130A               
1 60249U 24130A   24218.86315393  .00173559  85047-5  98541-3 0  9995
2 60249  97.4767 288.4927 0305242 127.9824 234.9414 15.35253058  2716
2024-130B               
1 60250U 24130B   24218.86967762  .00562996  21535-5  94423-3 0  9994
2 60250  97.4202 289.5480 0145128 106.6480 255.0781 15.86144890  2793
STARLINK-32138          
1 60255U 24131A   24218.58334491 -.00975408  00000+0 -39976-2 0  9993
2 60255  53.1563 241.0194 0001079  64.9424  58.4263 15.87587118  2540
STARLINK-32212          
1 60256U 24131B   24218.25001157 -.01020289  00000+0 -40445-2 0  9990
2 60256  53.1568 242.7032 0000746 101.1655 277.1528 15.88359127  2558
STARLINK-32166          
1 60257U 24131C   24218.25001157 -.01027435  00000+0 -40672-2 0  9993
2 60257  53.1566 242.6983 0000789 104.1514 276.4842 15.88402835  2551
STARLINK-32200          
1 60258U 24131D   24218.25001157 -.01034151  00000+0 -40882-2 0  9990
2 60258  53.1563 242.6934 0000726  99.0031 284.0335 15.88446255  2558
STARLINK-32207          
1 60259U 24131E   24218.25001157 -.01039635  00000+0 -41039-2 0  9998
2 60259  53.1565 242.6893 0000783 104.0418 280.8994 15.88487385  2547
STARLINK-32125          
1 60260U 24131F   24218.58334491 -.01003493  00000+0 -40889-2 0  9991
2 60260  53.1562 240.9972 0000956  87.1360  46.8976 15.87770328  2602
STARLINK-32160          
1 60261U 24131G   24218.58334491 -.01005071  00000+0 -40889-2 0  9996
2 60261  53.1561 240.9941 0000897  85.4307  50.0695 15.87805982  2660
STARLINK-32163          
1 60262U 24131H   24218.58334491 -.01018231  00000+0 -41334-2 0  9995
2 60262  53.1563 240.9848 0000864  66.2118  73.6858 15.87880871  2606
STARLINK-32148          
1 60263U 24131J   24217.33334491 -.01040840  00000+0 -36806-2 0  9997
2 60263  53.1568 247.3311 0000789  73.3263 108.7202 15.90641124  2450
STARLINK-32121          
1 60264U 24131K   24218.25001157 -.01064624  00000+0 -41719-2 0  9995
2 60264  53.1567 242.6689 0000732  99.5230 295.3604 15.88691294  2604
STARLINK-32120          
1 60265U 24131L   24218.58334491 -.01037346  00000+0 -41972-2 0  9994
2 60265  53.1561 240.9713 0000808  88.8598  57.7096 15.87991926  2665
STARLINK-32205          
1 60266U 24131M   24218.58334491 -.01031253  00000+0 -41773-2 0  9995
2 60266  53.1562 240.9757 0000817  74.4018  70.0792 15.87954766  2609
STARLINK-32158          
1 60267U 24131N   24217.58334491 -.01026720  00000+0 -36857-2 0  9995
2 60267  53.1566 246.0408 0001002  81.2398 102.8130 15.90315788  2337
STARLINK-32167          
1 60268U 24131P   24218.25001157 -.01096752  00000+0 -42681-2 0  9995
2 60268  53.1565 242.6466 0001043 104.5001 301.2274 15.88900409  2553
STARLINK-32144          
1 60269U 24131Q   24218.58334491 -.01048370  00000+0 -42319-2 0  9993
2 60269  53.1562 240.9627 0000804  78.2782  72.5991 15.88064550  2662
STARLINK-32211          
1 60270U 24131R   24218.25001157 -.01098165  00000+0 -42669-2 0  9994
2 60270  53.1566 242.6434 0000756 101.9228 305.3849 15.88937764  2551
STARLINK-32164          
1 60271U 24131S   24218.25001157 -.01106022  00000+0 -42921-2 0  9998
2 60271  53.1564 242.6385 0000774 102.9704 306.7326 15.88980572  2049
STARLINK-32128          
1 60272U 24131T   24218.58334491 -.01070744  00000+0 -43018-2 0  9994
2 60272  53.1559 240.9452 0000931  63.2846  95.8883 15.88210328  2602
STARLINK-32206          
1 60273U 24131U   24218.25001157 -.01124161  00000+0 -43447-2 0  9998
2 60273  53.1564 242.6249 0000799 104.3713 311.7399 15.89103653  2553
STARLINK-32155          
1 60274U 24131V   24218.58334491 -.01076448  00000+0 -43202-2 0  9998
2 60274  53.1562 240.9404 0000840  78.3875  83.1280 15.88245590  2546
STARLINK-32152          
1 60275U 24131W   24218.25001157 -.01132395  00000+0 -43714-2 0  9995
2 60275  53.1565 242.6201 0000799 106.6098 311.9079 15.89146231  2494
STARLINK-32154          
1 60276U 24131X   24218.25001157 -.01132823  00000+0 -43653-2 0  9994
2 60276  53.1564 242.6166 0000739  98.3649 321.7454 15.89182724  2557
STARLINK-32135          
1 60277U 24131Y   24218.25001157 -.01142138  00000+0 -43963-2 0  9999
2 60277  53.1564 242.6115 0000828 104.2908 318.2089 15.89225750  2558
STARLINK-32156          
1 60278U 24132A   24218.58334491 -.00966201  00000+0 -42678-2 0  9993
2 60278  53.1569 238.1459 0000756  79.5369 123.0539 15.86057965  2493
STARLINK-32010          
1 60279U 24132B   24218.58334491 -.00973585  00000+0 -42947-2 0  9996
2 60279  53.1569 238.1422 0001025  94.1400 110.1893 15.86100188  2499
STARLINK-32118          
1 60280U 24132C   24218.25001157 -.01015189  00000+0 -43319-2 0  9994
2 60280  53.1570 239.8214 0000723 100.0233   1.5962 15.86875248  2446
STARLINK-32038          
1 60281U 24132D   24218.58334491 -.00984647  00000+0 -43328-2 0  9994
2 60281  53.1567 238.1335 0000652  63.3114 145.1843 15.86180451  2492
STARLINK-32113          
1 60282U 24132E   24218.58334491 -.00987908  00000+0 -43399-2 0  9996
2 60282  53.1567 238.1298 0000920  76.0499 134.2277 15.86219623  2490
STARLINK-32037          
1 60283U 24132F   24218.25001157 -.01104488  00000+0 -46070-2 0  9995
2 60283  53.1573 239.7601 0000662  90.4059  40.7299 15.87547399  2432
STARLINK-32123          
1 60284U 24132G   24218.50001157 -.00957690  00000+0 -41514-2 0  9992
2 60284  53.1570 238.5472 0000904  80.1083  16.0069 15.86417946  2484
STARLINK-32122          
1 60285U 24132H   24218.25001157 -.01036197  00000+0 -43935-2 0  9995
2 60285  53.1568 239.8057 0000777  99.6932   9.5248 15.87053180  2440
STARLINK-31656          
1 60286U 24132J   24218.25001157 -.01047715  00000+0 -44287-2 0  9995
2 60286  53.1569 239.7975 0000755  96.3201  16.8031 15.87142852  2445
STARLINK-32114          
1 60287U 24132K   24218.58334491 -.01010942  00000+0 -44265-2 0  9990
2 60287  53.1569 238.1171 0000787  83.5049 133.0631 15.86343189  2498
STARLINK-31997          
1 60288U 24132L   24218.91667824 -.00991526  00000+0 -44822-2 0  9991
2 60288  53.1571 236.4231 0000548 111.9769 212.8964 15.85649506  2542
STARLINK-32000          
1 60289U 24132M   24218.25001157 -.01059312  00000+0 -44642-2 0  9999
2 60289  53.1569 239.7897 0000689  94.2831  22.6502 15.87232149  2440
STARLINK-32141          
1 60290U 24132N   24218.25001157 -.01067401  00000+0 -44923-2 0  9991
2 60290  53.1568 239.7853 0000628  93.5823  25.5433 15.87278984  2441
STARLINK-32142          
1 60291U 24132P   24218.25001157 -.01071985  00000+0 -45041-2 0  9996
2 60291  53.1568 239.7813 0000711  92.4950  28.5356 15.87322508  2449
STARLINK-32149          
1 60292U 24132Q   24218.25001157 -.01078004  00000+0 -45226-2 0  9991
2 60292  53.1569 239.7775 0000704  96.6114  26.3002 15.87367169  2444
STARLINK-32159          
1 60293U 24132R   24218.25001157 -.01081954  00000+0 -45316-2 0  9990
2 60293  53.1568 239.7736 0000706  88.9849  35.7704 15.87410120  2441
STARLINK-32150          
1 60294U 24132S   24218.25001157 -.01096554  00000+0 -45800-2 0  9991
2 60294  53.1566 239.7648 0000673  89.4446  39.5092 15.87501399  2445
STARLINK-32126          
1 60295U 24132T   24218.25001157 -.01092576  00000+0 -45705-2 0  9996
2 60295  53.1568 239.7690 0000870  93.2802  33.8196 15.87458524  2446
STARLINK-32143          
1 60296U 24132U   24218.25001157 -.01113526  00000+0 -46381-2 0  9997
2 60296  53.1568 239.7561 0001006 104.9796  28.2765 15.87593966  2448
STARLINK-32034          
1 60297U 24132V   24218.08334491 -.01055925  00000+0 -42984-2 0  9992
2 60297  53.1562 240.5944 0000728  38.7240 223.4074 15.87915947  2412
STARLINK-32124          
1 60298U 24132W   24218.25001157 -.01128943  00000+0 -46812-2 0  9997
2 60298  53.1568 239.7439 0000688  87.1384  51.9430 15.87724785  2441
STARLINK-32151          
1 60299U 24132X   24218.25001157 -.01124484  00000+0 -46702-2 0  9992
2 60299  53.1568 239.7475 0000695  93.4394  43.8404 15.87681849  2445
STARLINK-32134          
1 60300U 24132Y   24218.25001157 -.01133435  00000+0 -46916-2 0  9998
2 60300  53.1565 239.7398 0000919  99.6772  41.2575 15.87768068  2446
STARLINK-11147 [DTC]    
1 60301U 24133A   24218.75001157 -.00817219  21131-3 -24796-2 0  9997
2 60301  53.1666 134.2873 0000743 126.8452 219.5426 15.91357024  2478
STARLINK-11128 [DTC]    
1 60302U 24133B   24218.75001157 -.00787930  19877-3 -23362-2 0  9996
2 60302  53.1663 134.2750 0000828 127.4709 224.8738 15.91796986  2420
STARLINK-11227 [DTC]    
1 60303U 24133C   24218.75001157 -.00759861  18704-3 -22037-2 0  9995
2 60303  53.1665 134.2620 0000691 130.1557 228.4700 15.92216685  2523
STARLINK-11224 [DTC]    
1 60304U 24133D   24218.75001157 -.00738485  17844-3 -20972-2 0  9995
2 60304  53.1664 134.2498 0000938 131.8672 232.6246 15.92613789  2524
STARLINK-11115 [DTC]    
1 60305U 24133E   24218.75001157 -.00717116  16997-3 -19963-2 0  9990
2 60305  53.1665 134.2381 0000738 127.8026 242.4069 15.92989524  2483
STARLINK-11109 [DTC]    
1 60306U 24133F   24218.75001157 -.00689434  15904-3 -18837-2 0  9998
2 60306  53.1664 134.2273 0000822 132.6930 242.7657 15.93337778  2479
STARLINK-11223 [DTC]    
1 60307U 24133G   24218.75001157 -.00653499  14561-3 -17235-2 0  9990
2 60307  53.1661 134.2058 0000752 131.4127 254.2024 15.93996254  2415
